{
  "type": "FeatureCollection",
  "features": [
    {
      "type": "Feature",
      "properties": {
        "norad_id": 30416,
        "name": "FENGYUN 1C DEB",
        "group": "fengyun-1c-debris",
        "lat": 49.81082983978588,
        "lon": -144.18577468955698,
        "alt_km": 841.8854279628149,
        "timestamp": "2025-12-27T05:29:39.479273+00:00",
        "meta_object_name": "FENGYUN 1C DEB",
        "meta_object_id": "1999-025AEF",
        "meta_epoch": "2025-12-26T23:44:40.114752",
        "meta_mean_motion": 14.02649637,
        "meta_eccentricity": 0.00559079,
        "meta_inclination": 98.8354,
        "meta_ra_of_asc_node": 24.9717,
        "meta_arg_of_pericenter": 150.114,
        "meta_mean_anomaly": 210.3238,
        "meta_ephemeris_type": 0,
        "meta_classification_type": "U",
        "meta_norad_cat_id": 30416,
        "meta_element_set_no": 999,
        "meta_rev_at_epoch": 96824,
        "meta_bstar": 0.00033315916,
        "meta_mean_motion_dot": 4.79e-06,
        "meta_mean_motion_ddot": 0,
        "tle_line1": "1 30416U 99025AEF 25360.98935318  .00000479  00000+0  33316-3 0  9999",
        "tle_line2": "2 30416  98.8354  24.9717 0055907 150.1140 210.3238 14.02649637968241"
      },
      "geometry": {
        "type": "Point",
        "coordinates": [
          -144.18577468955698,
          49.81082983978588
        ]
      }
    },
    {
      "type": "Feature",
      "properties": {
        "norad_id": 30417,
        "name": "FENGYUN 1C DEB",
        "group": "fengyun-1c-debris",
        "lat": -71.38200684816317,
        "lon": 143.81914520793796,
        "alt_km": 897.126628604995,
        "timestamp": "2025-12-27T05:29:39.479284+00:00",
        "meta_object_name": "FENGYUN 1C DEB",
        "meta_object_id": "1999-025AEG",
        "meta_epoch": "2025-12-26T23:19:22.910016",
        "meta_mean_motion": 14.14678507,
        "meta_eccentricity": 0.00646433,
        "meta_inclination": 98.694,
        "meta_ra_of_asc_node": 350.5817,
        "meta_arg_of_pericenter": 79.9044,
        "meta_mean_anomaly": 304.6403,
        "meta_ephemeris_type": 0,
        "meta_classification_type": "U",
        "meta_norad_cat_id": 30417,
        "meta_element_set_no": 999,
        "meta_rev_at_epoch": 97590,
        "meta_bstar": 0.00031916237,
        "meta_mean_motion_dot": 5.84e-06,
        "meta_mean_motion_ddot": 0,
        "tle_line1": "1 30417U 99025AEG 25360.97179294  .00000584  00000+0  31916-3 0  9993",
        "tle_line2": "2 30417  98.6940 350.5817 0064643  79.9044 304.6403 14.14678507975901"
      },
      "geometry": {
        "type": "Point",
        "coordinates": [
          143.81914520793796,
          -71.38200684816317
        ]
      }
    },
    {
      "type": "Feature",
      "properties": {
        "norad_id": 30418,
        "name": "FENGYUN 1C DEB",
        "group": "fengyun-1c-debris",
        "lat": 58.48203615848883,
        "lon": 147.87278076805566,
        "alt_km": 533.3604701389131,
        "timestamp": "2025-12-27T05:29:39.479294+00:00",
        "meta_object_name": "FENGYUN 1C DEB",
        "meta_object_id": "1999-025AEH",
        "meta_epoch": "2025-12-26T23:19:56.187840",
        "meta_mean_motion": 14.84402189,
        "meta_eccentricity": 0.01109181,
        "meta_inclination": 98.8413,
        "meta_ra_of_asc_node": 162.2921,
        "meta_arg_of_pericenter": 70.5302,
        "meta_mean_anomaly": 58.148,
        "meta_ephemeris_type": 0,
        "meta_classification_type": "U",
        "meta_norad_cat_id": 30418,
        "meta_element_set_no": 999,
        "meta_rev_at_epoch": 803,
        "meta_bstar": 0.00083567264,
        "meta_mean_motion_dot": 7.775e-05,
        "meta_mean_motion_ddot": 0,
        "tle_line1": "1 30418U 99025AEH 25360.97217810  .00007775  00000+0  83567-3 0  9999",
        "tle_line2": "2 30418  98.8413 162.2921 0110918  70.5302  58.1480 14.84402189  8039"
      },
      "geometry": {
        "type": "Point",
        "coordinates": [
          147.87278076805566,
          58.48203615848883
        ]
      }
    },
    {
      "type": "Feature",
      "properties": {
        "norad_id": 30419,
        "name": "FENGYUN 1C DEB",
        "group": "fengyun-1c-debris",
        "lat": -46.18433633642407,
        "lon": -41.62539674903505,
        "alt_km": 806.1856757519972,
        "timestamp": "2025-12-27T05:29:39.479304+00:00",
        "meta_object_name": "FENGYUN 1C DEB",
        "meta_object_id": "1999-025AEJ",
        "meta_epoch": "2025-12-26T19:49:01.542720",
        "meta_mean_motion": 14.18086924,
        "meta_eccentricity": 0.00526032,
        "meta_inclination": 99.242,
        "meta_ra_of_asc_node": 308.185,
        "meta_arg_of_pericenter": 345.8999,
        "meta_mean_anomaly": 70.1957,
        "meta_ephemeris_type": 0,
        "meta_classification_type": "U",
        "meta_norad_cat_id": 30419,
        "meta_element_set_no": 999,
        "meta_rev_at_epoch": 97548,
        "meta_bstar": 0.00090042846,
        "meta_mean_motion_dot": 1.824e-05,
        "meta_mean_motion_ddot": 0,
        "tle_line1": "1 30419U 99025AEJ 25360.82571230  .00001824  00000+0  90043-3 0  9999",
        "tle_line2": "2 30419  99.2420 308.1850 0052603 345.8999  70.1957 14.18086924975488"
      },
      "geometry": {
        "type": "Point",
        "coordinates": [
          -41.62539674903505,
          -46.18433633642407
        ]
      }
    },
    {
      "type": "Feature",
      "properties": {
        "norad_id": 30432,
        "name": "FENGYUN 1C DEB",
        "group": "fengyun-1c-debris",
        "lat": 45.348920016040836,
        "lon": -108.48188536688531,
        "alt_km": 771.9681799367781,
        "timestamp": "2025-12-27T05:29:39.479315+00:00",
        "meta_object_name": "FENGYUN 1C DEB",
        "meta_object_id": "1999-025AET",
        "meta_epoch": "2025-12-26T22:36:52.103808",
        "meta_mean_motion": 14.40746125,
        "meta_eccentricity": 0.0082161,
        "meta_inclination": 98.835,
        "meta_ra_of_asc_node": 260.2805,
        "meta_arg_of_pericenter": 296.7111,
        "meta_mean_anomaly": 62.5684,
        "meta_ephemeris_type": 0,
        "meta_classification_type": "U",
        "meta_norad_cat_id": 30432,
        "meta_element_set_no": 999,
        "meta_rev_at_epoch": 98939,
        "meta_bstar": 0.00086166599,
        "meta_mean_motion_dot": 2.819e-05,
        "meta_mean_motion_ddot": 0,
        "tle_line1": "1 30432U 99025AET 25360.94226972  .00002819  00000+0  86167-3 0  9994",
        "tle_line2": "2 30432  98.8350 260.2805 0082161 296.7111  62.5684 14.40746125989398"
      },
      "geometry": {
        "type": "Point",
        "coordinates": [
          -108.48188536688531,
          45.348920016040836
        ]
      }
    },
    {
      "type": "Feature",
      "properties": {
        "norad_id": 30434,
        "name": "FENGYUN 1C DEB",
        "group": "fengyun-1c-debris",
        "lat": 70.16050997886315,
        "lon": -166.35090203894097,
        "alt_km": 908.9685876528583,
        "timestamp": "2025-12-27T05:29:39.479325+00:00",
        "meta_object_name": "FENGYUN 1C DEB",
        "meta_object_id": "1999-025AEV",
        "meta_epoch": "2025-12-26T22:20:13.661952",
        "meta_mean_motion": 13.90662912,
        "meta_eccentricity": 0.01211894,
        "meta_inclination": 99.0004,
        "meta_ra_of_asc_node": 347.3028,
        "meta_arg_of_pericenter": 192.407,
        "meta_mean_anomaly": 224.521,
        "meta_ephemeris_type": 0,
        "meta_classification_type": "U",
        "meta_norad_cat_id": 30434,
        "meta_element_set_no": 999,
        "meta_rev_at_epoch": 95904,
        "meta_bstar": 0.00031209761,
        "meta_mean_motion_dot": 3.7e-06,
        "meta_mean_motion_ddot": 0,
        "tle_line1": "1 30434U 99025AEV 25360.93071368  .00000370  00000+0  31210-3 0  9991",
        "tle_line2": "2 30434  99.0004 347.3028 0121189 192.4070 224.5210 13.90662912959042"
      },
      "geometry": {
        "type": "Point",
        "coordinates": [
          -166.35090203894097,
          70.16050997886315
        ]
      }
    },
    {
      "type": "Feature",
      "properties": {
        "norad_id": 30435,
        "name": "FENGYUN 1C DEB",
        "group": "fengyun-1c-debris",
        "lat": -72.94007705400658,
        "lon": 17.9835148477216,
        "alt_km": 1102.3223294920017,
        "timestamp": "2025-12-27T05:29:39.479335+00:00",
        "meta_object_name": "FENGYUN 1C DEB",
        "meta_object_id": "1999-025AEW",
        "meta_epoch": "2025-12-26T23:13:10.138080",
        "meta_mean_motion": 13.79672865,
        "meta_eccentricity": 0.02090381,
        "meta_inclination": 99.018,
        "meta_ra_of_asc_node": 346.5704,
        "meta_arg_of_pericenter": 73.7652,
        "meta_mean_anomaly": 354.1923,
        "meta_ephemeris_type": 0,
        "meta_classification_type": "U",
        "meta_norad_cat_id": 30435,
        "meta_element_set_no": 999,
        "meta_rev_at_epoch": 94356,
        "meta_bstar": 0.0017465294,
        "meta_mean_motion_dot": 2.085e-05,
        "meta_mean_motion_ddot": 0,
        "tle_line1": "1 30435U 99025AEW 25360.96747845  .00002085  00000+0  17465-2 0  9995",
        "tle_line2": "2 30435  99.0180 346.5704 0209038  73.7652 354.1923 13.79672865943563"
      },
      "geometry": {
        "type": "Point",
        "coordinates": [
          17.9835148477216,
          -72.94007705400658
        ]
      }
    }
  ]
}